ONEWEB-0153             
1 48044U 21025C   24090.54072366  .00000299  00000+0  78364-3 0  9998
2 48044  87.8912 121.1994 0001967  97.3392 262.7961 13.13470627147391
ONEWEB-0154             
1 48045U 21025D   24090.53755271  .00000353  00000+0  93172-3 0  9996
2 48045  87.8910 121.2139 0001929  94.9106 265.2244 13.13470044147357
ONEWEB-0116             
1 48046U 21025E   24090.57881576 -.00000314  00000+0 -89519-3 0  9998
2 48046  87.8912 121.1721 0001900  88.6897 271.4449 13.13469689147508
ONEWEB-0150             
1 48047U 21025F   24090.55342055  .00000062  00000+0  13404-3 0  9999
2 48047  87.8905 121.2008 0002118  96.3368 263.8002 13.13469334147395
ONEWEB-0107             
1 48048U 21025G   24090.55501393  .00000035  00000+0  60673-4 0  9993
2 48048  87.8904 121.1983 0002223 100.5746 259.5634 13.13469353147373
ONEWEB-0101             
1 48049U 21025H   24090.59468936  .00000041  00000+0  78092-4 0  9994
2 48049  87.8911 121.2020 0001895  98.2214 261.9130 13.13469723147359
ONEWEB-0113             
1 48050U 21025J   24090.57246646 -.00000300  00000+0 -85622-3 0  9992
2 48050  87.8911 121.1891 0001923  89.8419 270.2931 13.13469555147435
ONEWEB-0112             
1 48051U 21025K   24090.55976950 -.00000169  00000+0 -49857-3 0  9992
2 48051  87.8907 121.1952 0002064  92.9982 267.1383 13.13469767147448
